{
    "links": {
        "self": "http://www.neowsapp.com/rest/v1/neo/3601401?api_key=iIulBulltgU6a56xZRHN4H3l9WmuAYTsLGpBGhQ2"
    },
    "id": "3601401",
    "neo_reference_id": "3601401",
    "name": "(2012 FE)",
    "designation": "2012 FE",
    "nasa_jpl_url": "http://ssd.jpl.nasa.gov/sbdb.cgi?sstr=3601401",
    "absolute_magnitude_h": 27.0,
    "estimated_diameter": {
        "kilometers": {
            "estimated_diameter_min": 0.0105816886,
            "estimated_diameter_max": 0.023661375
        },
        "meters": {
            "estimated_diameter_min": 10.5816885933,
            "estimated_diameter_max": 23.6613750114
        },
        "miles": {
            "estimated_diameter_min": 0.0065751544,
            "estimated_diameter_max": 0.0147024923
        },
        "feet": {
            "estimated_diameter_min": 34.7168272045,
            "estimated_diameter_max": 77.6291855923
        }
    },
    "is_potentially_hazardous_asteroid": false,
    "close_approach_data": [
        {
            "close_approach_date": "2012-03-27",
            "close_approach_date_full": "2012-Mar-27 02:19",
            "epoch_date_close_approach": 1332814740000,
            "relative_velocity": {
                "kilometers_per_second": "6.9470380225",
                "kilometers_per_hour": "25009.3368809595",
                "miles_per_hour": "15539.8293525051"
            },
            "miss_distance": {
                "astronomical": "0.0317438736",
                "lunar": "12.3483668304",
                "kilometers": "4748815.876109232",
                "miles": "2950777.3560501216"
            },
            "orbiting_body": "Earth"
        }
    ],
    "orbital_data": {
        "orbit_id": "4",
        "orbit_determination_date": "2017-04-06 08:50:29",
        "first_observation_date": "2012-03-16",
        "last_observation_date": "2012-03-17",
        "data_arc_in_days": 1,
        "observations_used": 15,
        "orbit_uncertainty": "9",
        "minimum_orbit_intersection": ".026757",
        "jupiter_tisserand_invariant": "4.017",
        "epoch_osculation": "2456002.5",
        "eccentricity": ".4234484771030476",
        "semi_major_axis": "1.752599068737616",
        "inclination": "4.811043443563431",
        "ascending_node_longitude": "178.3737240180199",
        "orbital_period": "847.4660161046951",
        "perihelion_distance": "1.010463662108453",
        "perihelion_argument": "25.94538568770881",
        "aphelion_distance": "2.494734475366779",
        "perihelion_time": "2456028.316549470135",
        "mean_anomaly": "349.0332383450991",
        "mean_motion": ".424795794944922",
        "equinox": "J2000",
        "orbit_class": {
            "orbit_class_type": "APO",
            "orbit_class_description": "Near-Earth asteroid orbits which cross the Earth’s orbit similar to that of 1862 Apollo",
            "orbit_class_range": "a (semi-major axis) > 1.0 AU; q (perihelion) < 1.017 AU"
        }
    },
    "is_sentry_object": false
}